[{"OBJECT_NAME":"STARLINK-30085","OBJECT_ID":"2023-067X","EPOCH":"2026-03-09T19:43:42.532320","MEAN_MOTION":15.27572641,"ECCENTRICITY":0.00017635,"INCLINATION":43.0009,"RA_OF_ASC_NODE":270.021,"ARG_OF_PERICENTER":261.6576,"MEAN_ANOMALY":98.4075,"EPHEMERIS_TYPE":0,"CLASSIFICATION_TYPE":"U","NORAD_CAT_ID":56709,"ELEMENT_SET_NO":999,"REV_AT_EPOCH":15546,"BSTAR":4.9686794e-5,"MEAN_MOTION_DOT":1.105e-5,"MEAN_MOTION_DDOT":0},{"OBJECT_NAME":"OBJECT D","OBJECT_ID":"2026-023D","EPOCH":"2026-03-09T17:19:13.762848","MEAN_MOTION":15.22920595,"ECCENTRICITY":0.00208003,"INCLINATION":96.6418,"RA_OF_ASC_NODE":141.6791,"ARG_OF_PERICENTER":127.3034,"MEAN_ANOMALY":233.0105,"EPHEMERIS_TYPE":0,"CLASSIFICATION_TYPE":"U","NORAD_CAT_ID":67677,"ELEMENT_SET_NO":999,"REV_AT_EPOCH":485,"BSTAR":0.00050428287,"MEAN_MOTION_DOT":0.00011849,"MEAN_MOTION_DDOT":0}]
